[{"OBJECT_NAME":"EYESAT A (AO-27)","OBJECT_ID":"1993-061C","EPOCH":"2026-03-09T16:58:07.157856","MEAN_MOTION":14.30913089,"ECCENTRICITY":0.00089503,"INCLINATION":98.6982,"RA_OF_ASC_NODE":136.1171,"ARG_OF_PERICENTER":38.8989,"MEAN_ANOMALY":321.2837,"EPHEMERIS_TYPE":0,"CLASSIFICATION_TYPE":"U","NORAD_CAT_ID":22825,"ELEMENT_SET_NO":999,"REV_AT_EPOCH":69277,"BSTAR":7.1797441e-5,"MEAN_MOTION_DOT":1.44e-6,"MEAN_MOTION_DDOT":0},{"OBJECT_NAME":"FENGYUN 1C DEB","OBJECT_ID":"1999-025BTV","EPOCH":"2026-03-09T04:23:59.178048","MEAN_MOTION":14.26543669,"ECCENTRICITY":0.00966464,"INCLINATION":98.4076,"RA_OF_ASC_NODE":333.2217,"ARG_OF_PERICENTER":134.6513,"MEAN_ANOMALY":21.6545,"EPHEMERIS_TYPE":0,"CLASSIFICATION_TYPE":"U","NORAD_CAT_ID":31433,"ELEMENT_SET_NO":999,"REV_AT_EPOCH":96784,"BSTAR":0.0021240253,"MEAN_MOTION_DOT":5.343e-5,"MEAN_MOTION_DDOT":0}]
